NORAD_CAT_ID,OBJECT_NAME,OBJECT_TYPE,EPOCH,MEAN_MOTION,ECCENTRICITY,INCLINATION,RA_OF_ASC_NODE,ARG_OF_PERICENTER,MEAN_ANOMALY,BSTAR,MEAN_MOTION_DOT,MEAN_MOTION_DDOT,TLE_LINE0,TLE_LINE1,TLE_LINE2,SEMIMAJOR_AXIS,PERIOD,APOGEE,PERIGEE,DECAYED
53158.0,STARLINK-4054,PAYLOAD,2023-04-24 22:54:22,15.08863399,0.0001001,53.2167,196.5666,100.9826,259.1279,0.00016248,2.301e-05,0.0,0 STARLINK-4054,1 53158U 22083AC  23114.95443257  .00002301  00000-0  16248-3 0  9997,2 53158  53.2167 196.5666 0001001 100.9826 259.1279 15.08863399 43515,6917.809,95.436,540.366,538.981,0.0
53158.0,STARLINK-4054,PAYLOAD,2023-04-25 10:02:06,15.08813172,0.0001346,53.2145,194.4844,102.8214,257.2928,-0.0010566,-0.00017052,0.0,0 STARLINK-4054,1 53158U 22083AC  23115.41812672 -.00017052  00000-0 -10566-2 0  9997,2 53158  53.2145 194.4844 0001346 102.8214 257.2928 15.08813172 43581,6917.962,95.439,540.759,538.896,0.0
53158.0,STARLINK-4054,PAYLOAD,2023-04-26 11:28:18,15.08820642,0.0001269,53.2163,189.7263,109.0455,251.0675,0.0011596,0.00018205,0.0,0 STARLINK-4054,1 53158U 22083AC  23116.47799690  .00018205  00000-0  11596-2 0  9991,2 53158  53.2163 189.7263 0001269 109.0455 251.0675 15.08820642 43113,6917.94,95.439,540.682,538.927,0.0
53158.0,STARLINK-4054,PAYLOAD,2023-04-27 11:19:05,15.08861105,0.0001154,53.2156,185.2663,105.7141,254.3979,0.0012683,0.00019966,0.0,0 STARLINK-4054,1 53158U 22083AC  23117.47159508  .00019966  00000-0  12683-2 0  9993,2 53158  53.2156 185.2663 0001154 105.7141 254.3979 15.08861105 43895,6917.816,95.436,540.479,538.883,0.0
53158.0,STARLINK-4054,PAYLOAD,2023-04-27 12:54:28,15.08863897,0.0001152,53.2155,184.9687,106.6002,253.5117,0.0012771,0.00020109,0.0,0 STARLINK-4054,1 53158U 22083AC  23117.53783395  .00020109  00000-0  12771-2 0  9996,2 53158  53.2155 184.9687 0001152 106.6002 253.5117 15.08863897 43277,6917.807,95.436,540.469,538.875,0.0
53158.0,STARLINK-4054,PAYLOAD,2023-04-28 03:12:56,15.08873264,0.0001277,53.2155,182.292,108.3215,251.7916,0.00089397,0.00013981,0.0,0 STARLINK-4054,1 53158U 22083AC  23118.13398449  .00013981  00000-0  89397-3 0  9994,2 53158  53.2155 182.2920 0001277 108.3215 251.7916 15.08873264 43996,6917.779,95.435,540.527,538.76,0.0
53158.0,STARLINK-4054,PAYLOAD,2023-04-28 11:09:51,15.08879014,0.0001169,53.2157,180.806,104.1369,255.9753,0.00075155,0.00011706,0.0,0 STARLINK-4054,1 53158U 22083AC  23118.46517650  .00011706  00000-0  75155-3 0  9997,2 53158  53.2157 180.8060 0001169 104.1369 255.9753 15.08879014 43412,6917.761,95.435,540.435,538.817,0.0
53158.0,STARLINK-4054,PAYLOAD,2023-04-28 20:42:09,15.08870161,0.0001286,53.2157,179.0211,100.5376,259.5762,0.00031022,4.657e-05,0.0,0 STARLINK-4054,1 53158U 22083AC  23118.86261123  .00004657  00000-0  31022-3 0  9994,2 53158  53.2157 179.0211 0001286 100.5376 259.5762 15.08870161 44109,6917.788,95.436,540.543,538.764,0.0
53158.0,STARLINK-4054,PAYLOAD,2023-04-29 12:36:01,15.08829838,0.0001241,53.2156,176.0484,92.8794,267.2341,-0.00041287,-6.851e-05,0.0,0 STARLINK-4054,1 53158U 22083AC  23119.52502219 -.00006851  00000-0 -41287-3 0  9996,2 53158  53.2156 176.0484 0001241  92.8794 267.2341 15.08829838 44200,6917.911,95.438,540.635,538.918,0.0
53158.0,STARLINK-4054,PAYLOAD,2023-04-30 10:51:26,15.08841265,0.0001247,53.2154,171.8848,88.3517,271.7618,0.00083012,0.00012949,0.0,0 STARLINK-4054,1 53158U 22083AC  23120.45238997  .00012949  00000-0  83012-3 0  9994,2 53158  53.2154 171.8848 0001247  88.3517 271.7618 15.08841265 44344,6917.877,95.437,540.604,538.879,0.0
53158.0,STARLINK-4054,PAYLOAD,2023-05-01 12:17:36,15.08859529,0.0001296,53.2151,167.1267,86.8328,273.2812,0.00061201,9.471e-05,0.0,0 STARLINK-4054,1 53158U 22083AC  23121.51222226  .00009471  00000-0  61201-3 0  9992,2 53158  53.2151 167.1267 0001296  86.8328 273.2812 15.08859529 44504,6917.821,95.436,540.582,538.789,0.0
53158.0,STARLINK-4054,PAYLOAD,2023-05-02 02:36:03,15.08850872,0.0001423,53.2148,164.4507,93.4261,266.6894,0.00016845,2.395e-05,0.0,0 STARLINK-4054,1 53158U 22083AC  23122.10837949  .00002395  00000-0  16845-3 0  9994,2 53158  53.2148 164.4507 0001423  93.4261 266.6894 15.08850872 44596,6917.847,95.437,540.697,538.728,0.0
53158.0,STARLINK-4054,PAYLOAD,2023-05-02 08:57:36,15.08851824,0.0001386,53.2151,163.261,92.4855,267.6296,0.00018613,2.676e-05,0.0,0 STARLINK-4054,1 53158U 22083AC  23122.37333862  .00002676  00000-0  18613-3 0  9995,2 53158  53.2151 163.2610 0001386  92.4855 267.6296 15.08851824 44009,6917.844,95.437,540.668,538.75,0.0
53158.0,STARLINK-4054,PAYLOAD,2023-05-03 02:26:51,15.08844532,0.0001508,53.215,159.991,88.4586,271.6579,4.559e-05,4.38e-06,0.0,0 STARLINK-4054,1 53158U 22083AC  23123.10197981  .00000438  00000-0  45590-4 0  9996,2 53158  53.2150 159.9910 0001508  88.4586 271.6579 15.08844532 44743,6917.867,95.437,540.775,538.688,0.0
53158.0,STARLINK-4054,PAYLOAD,2023-05-03 11:59:10,15.08843594,0.0001384,53.2155,158.2052,86.2406,273.8744,-2.1891e-05,-6.36e-06,0.0,0 STARLINK-4054,1 53158U 22083AC  23123.49942268 -.00000636  00000-0 -21891-4 0  9994,2 53158  53.2155 158.2052 0001384  86.2406 273.8744 15.08843594 44178,6917.869,95.437,540.692,538.777,0.0
53158.0,STARLINK-4054,PAYLOAD,2023-05-04 11:49:56,15.08847268,0.0001245,53.2157,153.745,79.9951,280.1182,7.1224e-05,8.46e-06,0.0,0 STARLINK-4054,1 53158U 22083AC  23124.49301484  .00000846  00000-0  71224-4 0  9990,2 53158  53.2157 153.7450 0001245  79.9951 280.1182 15.08847268 44957,6917.858,95.437,540.584,538.862,0.0
53158.0,STARLINK-4054,PAYLOAD,2023-05-05 02:08:25,15.08834858,0.0001235,53.2157,151.0678,81.028,279.0852,4.2466e-05,3.88e-06,0.0,0 STARLINK-4054,1 53158U 22083AC  23125.08918390  .00000388  00000-0  42466-4 0  9993,2 53158  53.2157 151.0678 0001235  81.0280 279.0852 15.08834858 45041,6917.896,95.438,540.615,538.907,0.0
53158.0,STARLINK-4054,PAYLOAD,2023-05-05 18:02:16,15.08837027,0.0001252,53.2156,148.0956,76.5171,283.5961,3.3708e-05,2.49e-06,0.0,0 STARLINK-4054,1 53158U 22083AC  23125.75158379  .00000249  00000-0  33708-4 0  9995,2 53158  53.2156 148.0956 0001252  76.5171 283.5961 15.08837027 44515,6917.889,95.438,540.621,538.888,0.0
53158.0,STARLINK-4054,PAYLOAD,2023-05-06 05:09:58,15.08839031,0.000122,53.2158,146.0139,79.1604,280.9525,3.2648e-05,2.32e-06,0.0,0 STARLINK-4054,1 53158U 22083AC  23126.21526402  .00000232  00000-0  32648-4 0  9997,2 53158  53.2158 146.0139 0001220  79.1604 280.9525 15.08839031 45215,6917.883,95.438,540.592,538.904,0.0
53158.0,STARLINK-4054,PAYLOAD,2023-05-06 08:20:44,15.08840642,0.0001229,53.2157,145.4192,79.5522,280.5609,4.416e-05,4.15e-06,0.0,0 STARLINK-4054,1 53158U 22083AC  23126.34774250  .00000415  00000-0  44160-4 0  9992,2 53158  53.2157 145.4192 0001229  79.5522 280.5609 15.08840642 44609,6917.878,95.438,540.594,538.893,0.0
53158.0,STARLINK-4054,PAYLOAD,2023-05-06 22:39:13,15.08832902,0.0001232,53.2155,142.7427,83.4864,276.6268,4.0974e-05,3.64e-06,0.0,0 STARLINK-4054,1 53158U 22083AC  23126.94390823  .00000364  00000-0  40974-4 0  9990,2 53158  53.2155 142.7427 0001232  83.4864 276.6268 15.08832902 45322,6917.902,95.438,540.619,538.915,0.0
53158.0,STARLINK-4054,PAYLOAD,2023-05-07 08:11:32,15.08835106,0.0001247,53.2157,140.9584,85.74,274.3734,3.6151e-05,2.87e-06,0.0,0 STARLINK-4054,1 53158U 22083AC  23127.34134861  .00000287  00000-0  36151-4 0  9999,2 53158  53.2157 140.9584 0001247  85.7400 274.3734 15.08835106 44753,6917.895,95.438,540.623,538.898,0.0
53158.0,STARLINK-4054,PAYLOAD,2023-05-07 17:43:51,15.08835556,0.0001244,53.2158,139.1742,86.9839,273.1296,4.6523e-05,4.53e-06,0.0,0 STARLINK-4054,1 53158U 22083AC  23127.73878914  .00000453  00000-0  46523-4 0  9995,2 53158  53.2158 139.1742 0001244  86.9839 273.1296 15.08835556 44812,6917.894,95.438,540.62,538.898,0.0
53158.0,STARLINK-4054,PAYLOAD,2023-05-08 04:51:33,15.0883741,0.0001255,53.2158,137.0931,88.8267,271.2868,4.5636e-05,4.38e-06,0.0,0 STARLINK-4054,1 53158U 22083AC  23128.20246923  .00000438  00000-0  45636-4 0  9994,2 53158  53.2158 137.0931 0001255  88.8267 271.2868 15.08837410 45510,6917.888,95.438,540.622,538.885,0.0
53158.0,STARLINK-4054,PAYLOAD,2023-05-08 17:34:38,15.08840164,0.000124,53.216,134.7143,88.4593,271.6542,8.1684e-05,1.012e-05,0.0,0 STARLINK-4054,1 53158U 22083AC  23128.73238681  .00001012  00000-0  81684-4 0  9996,2 53158  53.2160 134.7143 0001240  88.4593 271.6542 15.08840164 44965,6917.88,95.438,540.603,538.887,0.0
53158.0,STARLINK-4054,PAYLOAD,2023-05-09 06:17:43,15.088432,0.0001213,53.216,132.335,88.6067,271.5064,0.00012784,1.747e-05,0.0,0 STARLINK-4054,1 53158U 22083AC  23129.26230357  .00001747  00000-0  12784-3 0  9996,2 53158  53.2160 132.3350 0001213  88.6067 271.5064 15.08843200 45678,6917.871,95.437,540.575,538.896,0.0
53158.0,STARLINK-4054,PAYLOAD,2023-05-10 06:08:30,15.0883608,0.0001253,53.2158,127.8728,88.4965,271.617,3.5812e-05,2.82e-06,0.0,0 STARLINK-4054,1 53158U 22083AC  23130.25591239  .00000282  00000-0  35812-4 0  9997,2 53158  53.2158 127.8728 0001253  88.4965 271.6170 15.08836080 45196,6917.892,95.438,540.624,538.891,0.0
53158.0,STARLINK-4054,PAYLOAD,2023-05-10 17:16:12,15.08843054,0.0001224,53.2157,125.7915,87.7979,272.3153,5.8262e-05,6.4e-06,0.0,0 STARLINK-4054,1 53158U 22083AC  23130.71958725  .00000640  00000-0  58262-4 0  9997,2 53158  53.2157 125.7915 0001224  87.7979 272.3153 15.08843054 45890,6917.871,95.437,540.583,538.889,0.0
53158.0,STARLINK-4054,PAYLOAD,2023-05-11 05:59:16,15.08849722,0.0001209,53.2157,123.4121,87.635,272.4781,6.8525e-05,8.03e-06,0.0,0 STARLINK-4054,1 53158U 22083AC  23131.24950076  .00000803  00000-0  68525-4 0  9991,2 53158  53.2157 123.4121 0001209  87.6350 272.4781 15.08849722 45345,6917.851,95.437,540.552,538.879,0.0
53158.0,STARLINK-4054,PAYLOAD,2023-05-12 04:14:41,15.08835119,0.0001233,53.216,119.2484,87.1869,272.9264,6.2709e-05,7.1e-06,0.0,0 STARLINK-4054,1 53158U 22083AC  23132.17687010  .00000710  00000-0  62709-4 0  9994,2 53158  53.2160 119.2484 0001233  87.1869 272.9264 15.08835119 45482,6917.895,95.438,540.613,538.907,0.0
